{
  "type": "FeatureCollection",
  "features": [
    {
      "type": "Feature",
      "properties": {
        "norad_id": 36744,
        "name": "COMS 1",
        "group": "weather",
        "lat": -3.9585684618227375,
        "lon": 11.97313625663377,
        "alt_km": 35786.45796442555,
        "timestamp": "2025-12-11T10:53:15.526025+00:00",
        "meta_object_name": "COMS 1",
        "meta_object_id": "2010-032A",
        "meta_epoch": "2025-12-10T15:51:52.946208",
        "meta_mean_motion": 1.0027063,
        "meta_eccentricity": 0.00011371,
        "meta_inclination": 4.3367,
        "meta_ra_of_asc_node": 78.0199,
        "meta_arg_of_pericenter": 211.0495,
        "meta_mean_anomaly": 156.7077,
        "meta_ephemeris_type": 0,
        "meta_classification_type": "U",
        "meta_norad_cat_id": 36744,
        "meta_element_set_no": 999,
        "meta_rev_at_epoch": 4920,
        "meta_bstar": 0,
        "meta_mean_motion_dot": -3.4e-06,
        "meta_mean_motion_ddot": 0,
        "tle_line1": "1 36744U 10032A   25344.66102947 -.00000340  00000+0  00000+0 0  9999",
        "tle_line2": "2 36744   4.3367  78.0199 0001137 211.0495 156.7077  1.00270630 49204"
      },
      "geometry": {
        "type": "Point",
        "coordinates": [
          11.97313625663377,
          -3.9585684618227375
        ]
      }
    },
    {
      "type": "Feature",
      "properties": {
        "norad_id": 37214,
        "name": "FENGYUN 3B",
        "group": "weather",
        "lat": -31.740687842608924,
        "lon": 31.041715944678558,
        "alt_km": 835.6800977643561,
        "timestamp": "2025-12-11T10:53:15.526038+00:00",
        "meta_object_name": "FENGYUN 3B",
        "meta_object_id": "2010-059A",
        "meta_epoch": "2025-12-11T04:34:56.650944",
        "meta_mean_motion": 14.14789336,
        "meta_eccentricity": 0.002212,
        "meta_inclination": 98.9906,
        "meta_ra_of_asc_node": 25.157,
        "meta_arg_of_pericenter": 2.1173,
        "meta_mean_anomaly": 68.5991,
        "meta_ephemeris_type": 0,
        "meta_classification_type": "U",
        "meta_norad_cat_id": 37214,
        "meta_element_set_no": 999,
        "meta_rev_at_epoch": 78084,
        "meta_bstar": 0.00018323,
        "meta_mean_motion_dot": 3.09e-06,
        "meta_mean_motion_ddot": 0,
        "tle_line1": "1 37214U 10059A   25345.19093346  .00000309  00000+0  18323-3 0  9997",
        "tle_line2": "2 37214  98.9906  25.1570 0022120   2.1173  68.5991 14.14789336780842"
      },
      "geometry": {
        "type": "Point",
        "coordinates": [
          31.041715944678558,
          -31.740687842608924
        ]
      }
    },
    {
      "type": "Feature",
      "properties": {
        "norad_id": 37849,
        "name": "SUOMI NPP",
        "group": "weather",
        "lat": 32.42893560539937,
        "lon": 108.43976586475013,
        "alt_km": 823.5829722092467,
        "timestamp": "2025-12-11T10:53:15.526051+00:00",
        "meta_object_name": "SUOMI NPP",
        "meta_object_id": "2011-061A",
        "meta_epoch": "2025-12-11T03:25:50.474784",
        "meta_mean_motion": 14.19513422,
        "meta_eccentricity": 0.0002198,
        "meta_inclination": 98.7771,
        "meta_ra_of_asc_node": 282.4989,
        "meta_arg_of_pericenter": 123.1378,
        "meta_mean_anomaly": 237.0009,
        "meta_ephemeris_type": 0,
        "meta_classification_type": "U",
        "meta_norad_cat_id": 37849,
        "meta_element_set_no": 999,
        "meta_rev_at_epoch": 73176,
        "meta_bstar": 0.00010459,
        "meta_mean_motion_dot": 1.76e-06,
        "meta_mean_motion_ddot": 0,
        "tle_line1": "1 37849U 11061A   25345.14294531  .00000176  00000+0  10459-3 0  9993",
        "tle_line2": "2 37849  98.7771 282.4989 0002198 123.1378 237.0009 14.19513422731766"
      },
      "geometry": {
        "type": "Point",
        "coordinates": [
          108.43976586475013,
          32.42893560539937
        ]
      }
    },
    {
      "type": "Feature",
      "properties": {
        "norad_id": 38552,
        "name": "METEOSAT-10 (MSG-3)",
        "group": "weather",
        "lat": -0.17602055281627266,
        "lon": -116.12069831799452,
        "alt_km": 35783.828728001026,
        "timestamp": "2025-12-11T10:53:15.526064+00:00",
        "meta_object_name": "METEOSAT-10 (MSG-3)",
        "meta_object_id": "2012-035B",
        "meta_epoch": "2025-12-10T23:48:54.536832",
        "meta_mean_motion": 1.00274457,
        "meta_eccentricity": 8.27e-05,
        "meta_inclination": 4.2251,
        "meta_ra_of_asc_node": 61.7286,
        "meta_arg_of_pericenter": 246.6369,
        "meta_mean_anomaly": 128.9806,
        "meta_ephemeris_type": 0,
        "meta_classification_type": "U",
        "meta_norad_cat_id": 38552,
        "meta_element_set_no": 999,
        "meta_rev_at_epoch": 4897,
        "meta_bstar": 0,
        "meta_mean_motion_dot": -1e-08,
        "meta_mean_motion_ddot": 0,
        "tle_line1": "1 38552U 12035B   25344.99229788 -.00000001  00000+0  00000+0 0  9996",
        "tle_line2": "2 38552   4.2251  61.7286 0000827 246.6369 128.9806  1.00274457 48974"
      },
      "geometry": {
        "type": "Point",
        "coordinates": [
          -116.12069831799452,
          -0.17602055281627266
        ]
      }
    },
    {
      "type": "Feature",
      "properties": {
        "norad_id": 38771,
        "name": "METOP-B",
        "group": "weather",
        "lat": -9.500653856481527,
        "lon": 36.89909182480428,
        "alt_km": 826.5376428269401,
        "timestamp": "2025-12-11T10:53:15.526093+00:00",
        "meta_object_name": "METOP-B",
        "meta_object_id": "2012-049A",
        "meta_epoch": "2025-12-11T04:10:30.314208",
        "meta_mean_motion": 14.21407381,
        "meta_eccentricity": 0.0002842,
        "meta_inclination": 98.6801,
        "meta_ra_of_asc_node": 35.1592,
        "meta_arg_of_pericenter": 147.4964,
        "meta_mean_anomaly": 212.6389,
        "meta_ephemeris_type": 0,
        "meta_classification_type": "U",
        "meta_norad_cat_id": 38771,
        "meta_element_set_no": 999,
        "meta_rev_at_epoch": 68655,
        "meta_bstar": 0.00011245,
        "meta_mean_motion_dot": 2.02e-06,
        "meta_mean_motion_ddot": 0,
        "tle_line1": "1 38771U 12049A   25345.17396197  .00000202  00000+0  11245-3 0  9993",
        "tle_line2": "2 38771  98.6801  35.1592 0002842 147.4964 212.6389 14.21407381686558"
      },
      "geometry": {
        "type": "Point",
        "coordinates": [
          36.89909182480428,
          -9.500653856481527
        ]
      }
    },
    {
      "type": "Feature",
      "properties": {
        "norad_id": 39216,
        "name": "INSAT-3D",
        "group": "weather",
        "lat": -1.3591102519007192,
        "lon": 13.28803053917434,
        "alt_km": 35790.401880600904,
        "timestamp": "2025-12-11T10:53:15.526106+00:00",
        "meta_object_name": "INSAT-3D",
        "meta_object_id": "2013-038B",
        "meta_epoch": "2025-12-10T22:43:08.337792",
        "meta_mean_motion": 1.00270704,
        "meta_eccentricity": 0.0001564,
        "meta_inclination": 1.4406,
        "meta_ra_of_asc_node": 85.0084,
        "meta_arg_of_pericenter": 163.5127,
        "meta_mean_anomaly": 301.7215,
        "meta_ephemeris_type": 0,
        "meta_classification_type": "U",
        "meta_norad_cat_id": 39216,
        "meta_element_set_no": 999,
        "meta_rev_at_epoch": 4519,
        "meta_bstar": 0,
        "meta_mean_motion_dot": -3.34e-06,
        "meta_mean_motion_ddot": 0,
        "tle_line1": "1 39216U 13038B   25344.94662428 -.00000334  00000+0  00000+0 0  9994",
        "tle_line2": "2 39216   1.4406  85.0084 0001564 163.5127 301.7215  1.00270704 45193"
      },
      "geometry": {
        "type": "Point",
        "coordinates": [
          13.28803053917434,
          -1.3591102519007192
        ]
      }
    },
    {
      "type": "Feature",
      "properties": {
        "norad_id": 39260,
        "name": "FENGYUN 3C",
        "group": "weather",
        "lat": -79.69118884896757,
        "lon": 88.1277624258221,
        "alt_km": 842.8110285547264,
        "timestamp": "2025-12-11T10:53:15.526118+00:00",
        "meta_object_name": "FENGYUN 3C",
        "meta_object_id": "2013-052A",
        "meta_epoch": "2025-12-11T04:33:19.808640",
        "meta_mean_motion": 14.15695512,
        "meta_eccentricity": 0.0014201,
        "meta_inclination": 98.4761,
        "meta_ra_of_asc_node": 322.9449,
        "meta_arg_of_pericenter": 200.6217,
        "meta_mean_anomaly": 159.4387,
        "meta_ephemeris_type": 0,
        "meta_classification_type": "U",
        "meta_norad_cat_id": 39260,
        "meta_element_set_no": 999,
        "meta_rev_at_epoch": 63196,
        "meta_bstar": 0.00011824,
        "meta_mean_motion_dot": 1.91e-06,
        "meta_mean_motion_ddot": 0,
        "tle_line1": "1 39260U 13052A   25345.18981260  .00000191  00000+0  11824-3 0  9994",
        "tle_line2": "2 39260  98.4761 322.9449 0014201 200.6217 159.4387 14.15695512631967"
      },
      "geometry": {
        "type": "Point",
        "coordinates": [
          88.1277624258221,
          -79.69118884896757
        ]
      }
    }
  ]
}